[{"OBJECT_NAME":"SKYCRAFT-4B","OBJECT_ID":"2025-154D","EPOCH":"2026-03-09T23:31:04.324224","MEAN_MOTION":14.96290027,"ECCENTRICITY":0.00045249,"INCLINATION":97.6762,"RA_OF_ASC_NODE":135.4663,"ARG_OF_PERICENTER":218.6003,"MEAN_ANOMALY":141.4895,"EPHEMERIS_TYPE":0,"CLASSIFICATION_TYPE":"U","NORAD_CAT_ID":64872,"ELEMENT_SET_NO":999,"REV_AT_EPOCH":3420,"BSTAR":0.00083632264,"MEAN_MOTION_DOT":9.402e-5,"MEAN_MOTION_DDOT":0},{"OBJECT_NAME":"STARLINK-36199","OBJECT_ID":"2025-304X","EPOCH":"2026-03-09T17:18:05.364288","MEAN_MOTION":14.98314096,"ECCENTRICITY":0.00040566,"INCLINATION":70.0012,"RA_OF_ASC_NODE":174.2026,"ARG_OF_PERICENTER":277.6942,"MEAN_ANOMALY":82.3756,"EPHEMERIS_TYPE":0,"CLASSIFICATION_TYPE":"U","NORAD_CAT_ID":67213,"ELEMENT_SET_NO":999,"REV_AT_EPOCH":1389,"BSTAR":-7.1540041e-5,"MEAN_MOTION_DOT":-9.46e-6,"MEAN_MOTION_DDOT":0}]
